{
  "norad_id": 58940,
  "name": "STARLINK-31371",
  "history": [
    {
      "epoch": "2026-03-28T17:58:49.439712",
      "apogee_km": 475.89930206153076,
      "perigee_km": 474.56412876839386,
      "latitude_deg": -52.531463818237434,
      "longitude_deg": 145.92159968009219,
      "semi_major_axis_km": 6853.368715414962,
      "eccentricity": 9.741e-05,
      "inclination_deg": 53.1595,
      "raan_deg": 221.2858,
      "arg_perigee_deg": 109.002,
      "mean_anomaly_deg": 251.1086,
      "mean_motion_rev_day": 15.30194425
    }
  ]
}